[
    {
        "Altitude(m)": 617710.6297967421,
        "Argument of Periapsis(deg)": 0.0,
        "Eccentricity": 0.0,
        "Inclination(deg)": 60.0,
        "Latitude(deg)": -41.10263343780998,
        "Longitude(deg)": 74.96669405523947,
        "Mean Anomaly(deg)": -49.09089999999997,
        "RAAN(deg)": 205.0,
        "Satellite Name": "Test1 921",
        "Satellite Number": 921,
        "Semi-Major Axis(m)": 6980739.136638005,
        "Time(s)": 0
    },
    {
        "Altitude(m)": 617517.9280775959,
        "Argument of Periapsis(deg)": 0.00010418945913296404,
        "Eccentricity": 0.0,
        "Inclination(deg)": 60.0,
        "Latitude(deg)": -40.63683974972782,
        "Longitude(deg)": 75.46348641905242,
        "Mean Anomaly(deg)": -48.470793854538115,
        "RAAN(deg)": 204.99957995086024,
        "Satellite Name": "Test1 921",
        "Satellite Number": 921,
        "Semi-Major Axis(m)": 6980739.136638005,
        "Time(s)": 10
    },
    {
        "Altitude(m)": 617324.2492644707,
        "Argument of Periapsis(deg)": 0.0002083789182659281,
        "Eccentricity": 0.0,
        "Inclination(deg)": 60.0,
        "Latitude(deg)": -40.16852075171548,
        "Longitude(deg)": 75.95285094679845,
        "Mean Anomaly(deg)": -47.85068770907629,
        "RAAN(deg)": 204.99915990172053,
        "Satellite Name": "Test1 921",
        "Satellite Number": 921,
        "Semi-Major Axis(m)": 6980739.136638005,
        "Time(s)": 20
    },
    {
        "Altitude(m)": 617129.6673382468,
        "Argument of Periapsis(deg)": 0.00031256837739889213,
        "Eccentricity": 0.0,
        "Inclination(deg)": 60.0,
        "Latitude(deg)": -39.69774957530043,
        "Longitude(deg)": 76.4349720919461,
        "Mean Anomaly(deg)": -47.230581563614436,
        "RAAN(deg)": 204.99873985258077,
        "Satellite Name": "Test1 921",
        "Satellite Number": 921,
        "Semi-Major Axis(m)": 6980739.136638005,
        "Time(s)": 30
    },
    {
        "Altitude(m)": 616934.2565285215,
        "Argument of Periapsis(deg)": 0.0004167578365318562,
        "Eccentricity": 0.0,
        "Inclination(deg)": 60.0,
        "Latitude(deg)": -39.224597129351515,
        "Longitude(deg)": 76.91003132975416,
        "Mean Anomaly(deg)": -46.61047541815261,
        "RAAN(deg)": 204.99831980344103,
        "Satellite Name": "Test1 921",
        "Satellite Number": 921,
        "Semi-Major Axis(m)": 6980739.136638005,
        "Time(s)": 40
    },
    {
        "Altitude(m)": 616738.0912811509,
        "Argument of Periapsis(deg)": 0.0005209472956648203,
        "Eccentricity": 0.0,
        "Inclination(deg)": 60.0,
        "Latitude(deg)": -38.74913217247514,
        "Longitude(deg)": 77.37820613407946,
        "Mean Anomaly(deg)": -45.99036927269076,
        "RAAN(deg)": 204.99789975430127,
        "Satellite Name": "Test1 921",
        "Satellite Number": 921,
        "Semi-Major Axis(m)": 6980739.136638005,
        "Time(s)": 50
    },
    {
        "Altitude(m)": 616541.2462256566,
        "Argument of Periapsis(deg)": 0.0006251367547977843,
        "Eccentricity": 0.0,
        "Inclination(deg)": 60.0,
        "Latitude(deg)": -38.271421383926146,
        "Longitude(deg)": 77.83967047793791,
        "Mean Anomaly(deg)": -45.37026312722893,
        "RAAN(deg)": 204.99747970516157,
        "Satellite Name": "Test1 921",
        "Satellite Number": 921,
        "Semi-Major Axis(m)": 6980739.136638005,
        "Time(s)": 60
    },
    {
        "Altitude(m)": 616343.7961425423,
        "Argument of Periapsis(deg)": 0.0007293262139307483,
        "Eccentricity": 0.0,
        "Inclination(deg)": 60.0,
        "Latitude(deg)": -37.79152943296433,
        "Longitude(deg)": 78.29459534382048,
        "Mean Anomaly(deg)": -44.75015698176708,
        "RAAN(deg)": 204.99705965602178,
        "Satellite Name": "Test1 921",
        "Satellite Number": 921,
        "Semi-Major Axis(m)": 6980739.136638005,
        "Time(s)": 70
    },
    {
        "Altitude(m)": 616145.8159305127,
        "Argument of Periapsis(deg)": 0.0008335156730637124,
        "Eccentricity": 0.0,
        "Inclination(deg)": 60.0,
        "Latitude(deg)": -37.30951904660236,
        "Longitude(deg)": 78.74314772985228,
        "Mean Anomaly(deg)": -44.13005083630535,
        "RAAN(deg)": 204.99663960688207,
        "Satellite Name": "Test1 921",
        "Satellite Number": 921,
        "Semi-Major Axis(m)": 6980739.136638005,
        "Time(s)": 80
    },
    {
        "Altitude(m)": 615947.3805736206,
        "Argument of Periapsis(deg)": 0.0009377051321966765,
        "Eccentricity": 0.0,
        "Inclination(deg)": 60.0,
        "Latitude(deg)": -36.82545107570032,
        "Longitude(deg)": 79.18549117657948,
        "Mean Anomaly(deg)": -43.5099446908435,
        "RAAN(deg)": 204.9962195577423,
        "Satellite Name": "Test1 921",
        "Satellite Number": 921,
        "Semi-Major Axis(m)": 6980739.136638005,
        "Time(s)": 90
    },
    {
        "Altitude(m)": 615748.565108359,
        "Argument of Periapsis(deg)": 0.0010418945913296407,
        "Eccentricity": 0.0,
        "Inclination(deg)": 60.0,
        "Latitude(deg)": -36.33938455938028,
        "Longitude(deg)": 79.62178630063319,
        "Mean Anomaly(deg)": -42.889838545381565,
        "RAAN(deg)": 204.99579950860257,
        "Satellite Name": "Test1 921",
        "Satellite Number": 921,
        "Semi-Major Axis(m)": 6980739.136638005,
        "Time(s)": 100
    },
    {
        "Altitude(m)": 615549.444590692,
        "Argument of Periapsis(deg)": 0.0011460840504626045,
        "Eccentricity": 0.0,
        "Inclination(deg)": 60.0,
        "Latitude(deg)": -35.85137678773949,
        "Longitude(deg)": 80.05218982159057,
        "Mean Anomaly(deg)": -42.26973239991982,
        "RAAN(deg)": 204.9953794594628,
        "Satellite Name": "Test1 921",
        "Satellite Number": 921,
        "Semi-Major Axis(m)": 6980739.136638005,
        "Time(s)": 110
    },
    {
        "Altitude(m)": 615350.0940630878,
        "Argument of Periapsis(deg)": 0.0012502735095955685,
        "Eccentricity": 0.0,
        "Inclination(deg)": 60.0,
        "Latitude(deg)": -35.361483362851075,
        "Longitude(deg)": 80.47685510703926,
        "Mean Anomaly(deg)": -41.64962625445799,
        "RAAN(deg)": 204.9949594103231,
        "Satellite Name": "Test1 921",
        "Satellite Number": 921,
        "Semi-Major Axis(m)": 6980739.136638005,
        "Time(s)": 120
    },
    {
        "Altitude(m)": 615150.5885214974,
        "Argument of Periapsis(deg)": 0.0013544629687285324,
        "Eccentricity": 0.0,
        "Inclination(deg)": 60.0,
        "Latitude(deg)": -34.86975825805215,
        "Longitude(deg)": 80.89593272229416,
        "Mean Anomaly(deg)": -41.02952010899614,
        "RAAN(deg)": 204.99453936118334,
        "Satellite Name": "Test1 921",
        "Satellite Number": 921,
        "Semi-Major Axis(m)": 6980739.136638005,
        "Time(s)": 130
    },
    {
        "Altitude(m)": 614951.0028823618,
        "Argument of Periapsis(deg)": 0.0014586524278614966,
        "Eccentricity": 0.0,
        "Inclination(deg)": 60.0,
        "Latitude(deg)": -34.37625387552336,
        "Longitude(deg)": 81.30956947128317,
        "Mean Anomaly(deg)": -40.40941396353431,
        "RAAN(deg)": 204.9941193120436,
        "Satellite Name": "Test1 921",
        "Satellite Number": 921,
        "Semi-Major Axis(m)": 6980739.136638005,
        "Time(s)": 140
    },
    {
        "Altitude(m)": 614751.411949622,
        "Argument of Periapsis(deg)": 0.0015628418869944607,
        "Eccentricity": 0.0,
        "Inclination(deg)": 60.0,
        "Latitude(deg)": -33.88102110216999,
        "Longitude(deg)": 81.71790895378058,
        "Mean Anomaly(deg)": -39.78930781807256,
        "RAAN(deg)": 204.99369926290385,
        "Satellite Name": "Test1 921",
        "Satellite Number": 921,
        "Semi-Major Axis(m)": 6980739.136638005,
        "Time(s)": 150
    },
    {
        "Altitude(m)": 614551.8903817764,
        "Argument of Periapsis(deg)": 0.0016670313461274247,
        "Eccentricity": 0.0,
        "Inclination(deg)": 60.0,
        "Latitude(deg)": -33.384109363821814,
        "Longitude(deg)": 82.12109212560809,
        "Mean Anomaly(deg)": -39.169201672610626,
        "RAAN(deg)": 204.99327921376414,
        "Satellite Name": "Test1 921",
        "Satellite Number": 921,
        "Semi-Major Axis(m)": 6980739.136638005,
        "Time(s)": 160
    },
    {
        "Altitude(m)": 614352.5126589573,
        "Argument of Periapsis(deg)": 0.0017712208052603888,
        "Eccentricity": 0.0,
        "Inclination(deg)": 60.0,
        "Latitude(deg)": -32.88556667777441,
        "Longitude(deg)": 82.51925634846776,
        "Mean Anomaly(deg)": -38.54909552714888,
        "RAAN(deg)": 204.99285916462438,
        "Satellite Name": "Test1 921",
        "Satellite Number": 921,
        "Semi-Major Axis(m)": 6980739.136638005,
        "Time(s)": 170
    },
    {
        "Altitude(m)": 614153.3530501053,
        "Argument of Periapsis(deg)": 0.001875410264393353,
        "Eccentricity": 0.0,
        "Inclination(deg)": 60.0,
        "Latitude(deg)": -32.38543970369277,
        "Longitude(deg)": 82.91253595473319,
        "Mean Anomaly(deg)": -37.92898938168705,
        "RAAN(deg)": 204.99243911548464,
        "Satellite Name": "Test1 921",
        "Satellite Number": 921,
        "Semi-Major Axis(m)": 6980739.136638005,
        "Time(s)": 180
    },
    {
        "Altitude(m)": 613954.4855801825,
        "Argument of Periapsis(deg)": 0.0019795997235263173,
        "Eccentricity": 0.0,
        "Inclination(deg)": 60.0,
        "Latitude(deg)": -31.883773792909665,
        "Longitude(deg)": 83.30106281394625,
        "Mean Anomaly(deg)": -37.30888323622519,
        "RAAN(deg)": 204.99201906634488,
        "Satellite Name": "Test1 921",
        "Satellite Number": 921,
        "Semi-Major Axis(m)": 6980739.136638005,
        "Time(s)": 190
    }
]